{"type": "FeatureCollection", "features": [ {"type": "Feature", "properties": {"norad_id": 66909, "name": "SILVERSAT", "group": "last-30-days", "lat": 45.81853074980179, "lon": -81.7131976288877, "alt_km": 407.5040439065988, "timestamp": "2025-12-10T14:53:35.947753+00:00", "meta": {"OBJECT_NAME": "SILVERSAT", "OBJECT_ID": "1998-067XV", "EPOCH": "2025-12-09T19:50:59.696448", "MEAN_MOTION": 15.51056405, "ECCENTRICITY": 0.00048767, "INCLINATION": 51.6304, "RA_OF_ASC_NODE": 156.8402, "ARG_OF_PERICENTER": 210.6196, "MEAN_ANOMALY": 149.451, "EPHEMERIS_TYPE": 0, "CLASSIFICATION_TYPE": "U", "NORAD_CAT_ID": 66909, "ELEMENT_SET_NO": 999, "REV_AT_EPOCH": 116, "BSTAR": 0.001540003, "MEAN_MOTION_DOT": 0.00091886, "MEAN_MOTION_DDOT": 0}, "tle": {"line1": "1 66909U 98067XV  25343.82707982  .00091886  00000+0  15400-2 0  9993", "line2": "2 66909  51.6304 156.8402 0004876 210.6196 149.4510 15.51056405  1161"}}, "geometry": {"type": "Point", "coordinates": [-81.7131976288877, 45.81853074980179]}}, {"type": "Feature", "properties": {"norad_id": 66910, "name": "1998-067XW", "group": "last-30-days", "lat": 42.200732752989985, "lon": -73.0397343930538, "alt_km": 406.06216932677216, "timestamp": "2025-12-10T14:53:35.947762+00:00", "meta": {"OBJECT_NAME": "1998-067XW", "OBJECT_ID": "1998-067XW", "EPOCH": "2025-12-09T18:16:30.089568", "MEAN_MOTION": 15.51233501, "ECCENTRICITY": 0.00057247, "INCLINATION": 51.6303, "RA_OF_ASC_NODE": 157.1524, "ARG_OF_PERICENTER": 193.6821, "MEAN_ANOMALY": 166.4014, "EPHEMERIS_TYPE": 0, "CLASSIFICATION_TYPE": "U", "NORAD_CAT_ID": 66910, "ELEMENT_SET_NO": 999, "REV_AT_EPOCH": 115, "BSTAR": 0.001286346, "MEAN_MOTION_DOT": 0.00077029, "MEAN_MOTION_DDOT": 0}, "tle": {"line1": "1 66910U 98067XW  25343.76145937  .00077029  00000+0  12863-2 0  9997", "line2": "2 66910  51.6303 157.1524 0005724 193.6821 166.4014 15.51233501  1150"}}, "geometry": {"type": "Point", "coordinates": [-73.0397343930538, 42.200732752989985]}}, {"type": "Feature", "properties": {"norad_id": 66911, "name": "1998-067XX", "group": "last-30-days", "lat": 40.91543590731708, "lon": -70.4898200383243, "alt_km": 405.63284327506335, "timestamp": "2025-12-10T14:53:35.947771+00:00", "meta": {"OBJECT_NAME": "1998-067XX", "OBJECT_ID": "1998-067XX", "EPOCH": "2025-12-09T02:48:25.040736", "MEAN_MOTION": 15.51276485, "ECCENTRICITY": 0.00057034, "INCLINATION": 51.6296, "RA_OF_ASC_NODE": 160.3494, "ARG_OF_PERICENTER": 191.2268, "MEAN_ANOMALY": 168.8595, "EPHEMERIS_TYPE": 0, "CLASSIFICATION_TYPE": "U", "NORAD_CAT_ID": 66911, "ELEMENT_SET_NO": 999, "REV_AT_EPOCH": 104, "BSTAR": 0.0014245982, "MEAN_MOTION_DOT": 0.00085582, "MEAN_MOTION_DDOT": 0}, "tle": {"line1": "1 66911U 98067XX  25343.11695649  .00085582  00000+0  14246-2 0  9997", "line2": "2 66911  51.6296 160.3494 0005703 191.2268 168.8595 15.51276485  1046"}}, "geometry": {"type": "Point", "coordinates": [-70.4898200383243, 40.91543590731708]}}, {"type": "Feature", "properties": {"norad_id": 66912, "name": "1998-067XY", "group": "last-30-days", "lat": 48.252532795420535, "lon": -89.68485903167786, "alt_km": 408.47256060759537, "timestamp": "2025-12-10T14:53:35.947781+00:00", "meta": {"OBJECT_NAME": "1998-067XY", "OBJECT_ID": "1998-067XY", "EPOCH": "2025-12-08T19:07:24.168000", "MEAN_MOTION": 15.50590071, "ECCENTRICITY": 0.00050436, "INCLINATION": 51.6301, "RA_OF_ASC_NODE": 161.961, "ARG_OF_PERICENTER": 202.8278, "MEAN_ANOMALY": 157.2488, "EPHEMERIS_TYPE": 0, "CLASSIFICATION_TYPE": "U", "NORAD_CAT_ID": 66912, "ELEMENT_SET_NO": 999, "REV_AT_EPOCH": 99, "BSTAR": 0.0009627216, "MEAN_MOTION_DOT": 0.00056065, "MEAN_MOTION_DDOT": 0}, "tle": {"line1": "1 66912U 98067XY  25342.79680750  .00056065  00000+0  96272-3 0  9992", "line2": "2 66912  51.6301 161.9610 0005043 202.8278 157.2488 15.50590071   993"}}, "geometry": {"type": "Point", "coordinates": [-89.68485903167786, 48.252532795420535]}}, {"type": "Feature", "properties": {"norad_id": 66913, "name": "2025-284A", "group": "last-30-days", "lat": -0.9620658178491621, "lon": 132.28832004116683, "alt_km": 519.3098468244652, "timestamp": "2025-12-10T14:53:35.947790+00:00", "meta": {"OBJECT_NAME": "2025-284A", "OBJECT_ID": "2025-284A", "EPOCH": "2025-12-10T06:59:32.543232", "MEAN_MOTION": 15.18889288, "ECCENTRICITY": 0.00119441, "INCLINATION": 80.4046, "RA_OF_ASC_NODE": 132.8683, "ARG_OF_PERICENTER": 211.9522, "MEAN_ANOMALY": 148.0982, "EPHEMERIS_TYPE": 0, "CLASSIFICATION_TYPE": "U", "NORAD_CAT_ID": 66913, "ELEMENT_SET_NO": 999, "REV_AT_EPOCH": 75, "BSTAR": 0.00057221807, "MEAN_MOTION_DOT": 0.00011983, "MEAN_MOTION_DDOT": 0}, "tle": {"line1": "1 66913U 25284A   25344.29134888  .00011983  00000+0  57222-3 0  9999", "line2": "2 66913  80.4046 132.8683 0011944 211.9522 148.0982 15.18889288   753"}}, "geometry": {"type": "Point", "coordinates": [132.28832004116683, -0.9620658178491621]}}, {"type": "Feature", "properties": {"norad_id": 66914, "name": "2025-284B", "group": "last-30-days", "lat": 1.5234728793229144, "lon": 132.70933011907172, "alt_km": 513.8606377200158, "timestamp": "2025-12-10T14:53:35.947800+00:00", "meta": {"OBJECT_NAME": "2025-284B", "OBJECT_ID": "2025-284B", "EPOCH": "2025-12-10T06:58:51.843648", "MEAN_MOTION": 15.18843698, "ECCENTRICITY": 0.00081585, "INCLINATION": 80.4056, "RA_OF_ASC_NODE": 132.8693, "ARG_OF_PERICENTER": 254.6684, "MEAN_ANOMALY": 105.3642, "EPHEMERIS_TYPE": 0, "CLASSIFICATION_TYPE": "U", "NORAD_CAT_ID": 66914, "ELEMENT_SET_NO": 999, "REV_AT_EPOCH": 75, "BSTAR": 0.00070602257, "MEAN_MOTION_DOT": 0.00014751, "MEAN_MOTION_DDOT": 0}, "tle": {"line1": "1 66914U 25284B   25344.29087782  .00014751  00000+0  70602-3 0  9993", "line2": "2 66914  80.4056 132.8693 0008158 254.6684 105.3642 15.18843698   756"}}, "geometry": {"type": "Point", "coordinates": [132.70933011907172, 1.5234728793229144]}}, {"type": "Feature", "properties": {"norad_id": 66915, "name": "HULIANWANG DIGUI 14A", "group": "last-30-days", "lat": -49.394760615364966, "lon": 24.242509143217667, "alt_km": 873.6609843498054, "timestamp": "2025-12-10T14:53:35.947809+00:00", "meta": {"OBJECT_NAME": "HULIANWANG DIGUI 14A", "OBJECT_ID": "2025-285A", "EPOCH": "2025-12-10T05:07:00.829056", "MEAN_MOTION": 14.0546633, "ECCENTRICITY": 0.00081047, "INCLINATION": 50.0034, "RA_OF_ASC_NODE": 127.5821, "ARG_OF_PERICENTER": 274.1801, "MEAN_ANOMALY": 85.8178, "EPHEMERIS_TYPE": 0, "CLASSIFICATION_TYPE": "U", "NORAD_CAT_ID": 66915, "ELEMENT_SET_NO": 999, "REV_AT_EPOCH": 55, "BSTAR": 1.2826406e-05, "MEAN_MOTION_DOT": -1.31e-06, "MEAN_MOTION_DDOT": 0}, "tle": {"line1": "1 66915U 25285A   25344.21320404 -.00000131  00000+0  12826-4 0  9991", "line2": "2 66915  50.0034 127.5821 0008104 274.1801  85.8178 14.05466330   552"}}, "geometry": {"type": "Point", "coordinates": [24.242509143217667, -49.394760615364966]}}, {"type": "Feature", "properties": {"norad_id": 66916, "name": "HULIANWANG DIGUI 14B", "group": "last-30-days", "lat": -49.50870507634952, "lon": 25.40734962261823, "alt_km": 874.2198511572296, "timestamp": "2025-12-10T14:53:35.947819+00:00", "meta": {"OBJECT_NAME": "HULIANWANG DIGUI 14B", "OBJECT_ID": "2025-285B", "EPOCH": "2025-12-10T05:06:49.310208", "MEAN_MOTION": 14.05512718, "ECCENTRICITY": 0.00069603, "INCLINATION": 50.0045, "RA_OF_ASC_NODE": 127.5825, "ARG_OF_PERICENTER": 268.8886, "MEAN_ANOMALY": 91.1222, "EPHEMERIS_TYPE": 0, "CLASSIFICATION_TYPE": "U", "NORAD_CAT_ID": 66916, "ELEMENT_SET_NO": 999, "REV_AT_EPOCH": 55, "BSTAR": 1.2834393e-05, "MEAN_MOTION_DOT": -1.31e-06, "MEAN_MOTION_DDOT": 0}, "tle": {"line1": "1 66916U 25285B   25344.21307072 -.00000131  00000+0  12834-4 0  9997", "line2": "2 66916  50.0045 127.5825 0006960 268.8886  91.1222 14.05512718   552"}}, "geometry": {"type": "Point", "coordinates": [25.40734962261823, -49.50870507634952]}}, {"type": "Feature", "properties": {"norad_id": 66917, "name": "HULIANWANG DIGUI 14C", "group": "last-30-days", "lat": -49.64363613360247, "lon": 27.045753380283717, "alt_km": 873.6973512223249, "timestamp": "2025-12-10T14:53:35.947827+00:00", "meta": {"OBJECT_NAME": "HULIANWANG DIGUI 14C", "OBJECT_ID": "2025-285C", "EPOCH": "2025-12-10T06:48:55.154880", "MEAN_MOTION": 14.05578819, "ECCENTRICITY": 0.00075322, "INCLINATION": 50.0009, "RA_OF_ASC_NODE": 127.2877, "ARG_OF_PERICENTER": 276.7703, "MEAN_ANOMALY": 83.2344, "EPHEMERIS_TYPE": 0, "CLASSIFICATION_TYPE": "U", "NORAD_CAT_ID": 66917, "ELEMENT_SET_NO": 999, "REV_AT_EPOCH": 56, "BSTAR": -1.469388e-06, "MEAN_MOTION_DOT": -1.54e-06, "MEAN_MOTION_DDOT": 0}, "tle": {"line1": "1 66917U 25285C   25344.28397170 -.00000154  00000+0 -14694-5 0  9996", "line2": "2 66917  50.0009 127.2877 0007532 276.7703  83.2344 14.05578819   561"}}, "geometry": {"type": "Point", "coordinates": [27.045753380283717, -49.64363613360247]}}, {"type": "Feature", "properties": {"norad_id": 66918, "name": "HULIANWANG DIGUI 14D", "group": "last-30-days", "lat": -49.83249031492205, "lon": 29.931427217675033, "alt_km": 873.9369823556799, "timestamp": "2025-12-10T14:53:35.947836+00:00", "meta": {"OBJECT_NAME": "HULIANWANG DIGUI 14D", "OBJECT_ID": "2025-285D", "EPOCH": "2025-12-10T05:06:03.788640", "MEAN_MOTION": 14.05703345, "ECCENTRICITY": 0.00064559, "INCLINATION": 50.0042, "RA_OF_ASC_NODE": 127.5783, "ARG_OF_PERICENTER": 271.7014, "MEAN_ANOMALY": 88.3151, "EPHEMERIS_TYPE": 0, "CLASSIFICATION_TYPE": "U", "NORAD_CAT_ID": 66918, "ELEMENT_SET_NO": 999, "REV_AT_EPOCH": 55, "BSTAR": 4.239764e-06, "MEAN_MOTION_DOT": -1.45e-06, "MEAN_MOTION_DDOT": 0}, "tle": {"line1": "1 66918U 25285D   25344.21254385 -.00000145  00000+0  42398-5 0  9991", "line2": "2 66918  50.0042 127.5783 0006455 271.7014  88.3151 14.05703345   556"}}, "geometry": {"type": "Point", "coordinates": [29.931427217675033, -49.83249031492205]}}]}